[{"OBJECT_NAME":"HORS 2","OBJECT_ID":"2023-091AG","EPOCH":"2026-03-09T22:11:34.810944","MEAN_MOTION":15.2928008,"ECCENTRICITY":0.00098173,"INCLINATION":97.5195,"RA_OF_ASC_NODE":134.7443,"ARG_OF_PERICENTER":79.3164,"MEAN_ANOMALY":280.9181,"EPHEMERIS_TYPE":0,"CLASSIFICATION_TYPE":"U","NORAD_CAT_ID":57196,"ELEMENT_SET_NO":999,"REV_AT_EPOCH":14934,"BSTAR":0.00059338338,"MEAN_MOTION_DOT":0.00016821,"MEAN_MOTION_DDOT":0},{"OBJECT_NAME":"STARLINK-34260","OBJECT_ID":"2025-124T","EPOCH":"2026-03-09T12:45:35.584704","MEAN_MOTION":15.27585172,"ECCENTRICITY":0.00020538,"INCLINATION":43.0023,"RA_OF_ASC_NODE":122.8303,"ARG_OF_PERICENTER":261.3098,"MEAN_ANOMALY":98.7521,"EPHEMERIS_TYPE":0,"CLASSIFICATION_TYPE":"U","NORAD_CAT_ID":64334,"ELEMENT_SET_NO":999,"REV_AT_EPOCH":4175,"BSTAR":0.00096485008,"MEAN_MOTION_DOT":0.00026388,"MEAN_MOTION_DDOT":0}]
